ORBCOMM-X               
1 21576U 91050C   25134.47569222  .00000365  00000+0  12125-3 0  9995
2 21576  98.3448 201.7579 0002370 296.4044  63.6903 14.43237135777473
ORBCOMM FM01            
1 23545U 95017A   25134.42946236  .00005114  00000+0  54181-3 0  9994
2 23545  69.9613 158.2882 0004224 317.1537  42.9288 14.89703391607830
ORBCOMM FM02            
1 23546U 95017B   25134.52488808  .00005213  00000+0  54155-3 0  9993
2 23546  69.9635 177.5432 0005267 329.7781  30.3070 14.90487055607443
ORBCOMM FM08            
1 25112U 97084A   25133.56138052  .00001215  00000+0  38047-3 0  9996
2 25112  45.0127 174.0703 0003976  64.3087 295.8174 14.45709496436533
ORBCOMM FM10            
1 25113U 97084B   25134.43587926  .00001001  00000+0  32182-3 0  9999
2 25113  45.0137 172.1947 0003445  12.0672 348.0261 14.45500334436645
ORBCOMM FM11            
1 25114U 97084C   25133.60512963  .00001209  00000+0  38229-3 0  9995
2 25114  45.0126 176.7512 0004157  15.5792 344.5186 14.45252008436474
ORBCOMM FM12            
1 25115U 97084D   25134.19023594  .00001126  00000+0  35863-3 0  9997
2 25115  45.0132 173.6986 0003330   8.0702 352.0202 14.45273821436595
ORBCOMM FM09            
1 25116U 97084E   25133.45921807  .00001185  00000+0  37615-3 0  9992
2 25116  45.0136 178.1034 0005024   1.0417 359.0444 14.45150576436486
